{
  "type": "FeatureCollection",
  "features": [
    {
      "type": "Feature",
      "properties": {
        "norad_id": 29268,
        "name": "ARIRANG-2 (KOMPSAT-2)",
        "group": "resource",
        "lat": 0.4394637982096311,
        "lon": 166.08026781001962,
        "alt_km": 672.3714827585318,
        "timestamp": "2025-12-03T04:52:29.297908+00:00",
        "meta_object_name": "ARIRANG-2 (KOMPSAT-2)",
        "meta_object_id": "2006-031A",
        "meta_epoch": "2025-12-02T21:08:54.047040",
        "meta_mean_motion": 14.64479181,
        "meta_eccentricity": 0.0014037,
        "meta_inclination": 97.8265,
        "meta_ra_of_asc_node": 165.8346,
        "meta_arg_of_pericenter": 341.7244,
        "meta_mean_anomaly": 122.5202,
        "meta_ephemeris_type": 0,
        "meta_classification_type": "U",
        "meta_norad_cat_id": 29268,
        "meta_element_set_no": 999,
        "meta_rev_at_epoch": 3274,
        "meta_bstar": 0.00011222,
        "meta_mean_motion_dot": 5.5e-06,
        "meta_mean_motion_ddot": 0,
        "tle_line1": "1 29268U 06031A   25336.88118110  .00000550  00000+0  11222-3 0  9994",
        "tle_line2": "2 29268  97.8265 165.8346 0014037 341.7244 122.5202 14.64479181 32744"
      },
      "geometry": {
        "type": "Point",
        "coordinates": [
          166.08026781001962,
          0.4394637982096311
        ]
      }
    },
    {
      "type": "Feature",
      "properties": {
        "norad_id": 29709,
        "name": "LAPAN-TUBSAT",
        "group": "resource",
        "lat": -69.45576156946638,
        "lon": -10.427318015895798,
        "alt_km": 628.2617083529994,
        "timestamp": "2025-12-03T04:52:29.297919+00:00",
        "meta_object_name": "LAPAN-TUBSAT",
        "meta_object_id": "2007-001A",
        "meta_epoch": "2025-12-02T21:06:45.550368",
        "meta_mean_motion": 14.85646112,
        "meta_eccentricity": 0.0013586,
        "meta_inclination": 98.1251,
        "meta_ra_of_asc_node": 326.8339,
        "meta_arg_of_pericenter": 103.2719,
        "meta_mean_anomaly": 257.0012,
        "meta_ephemeris_type": 0,
        "meta_classification_type": "U",
        "meta_norad_cat_id": 29709,
        "meta_element_set_no": 999,
        "meta_rev_at_epoch": 2200,
        "meta_bstar": 0.000116,
        "meta_mean_motion_dot": 9.49e-06,
        "meta_mean_motion_ddot": 0,
        "tle_line1": "1 29709U 07001A   25336.87969387  .00000949  00000+0  11600-3 0  9993",
        "tle_line2": "2 29709  98.1251 326.8339 0013586 103.2719 257.0012 14.85646112 22004"
      },
      "geometry": {
        "type": "Point",
        "coordinates": [
          -10.427318015895798,
          -69.45576156946638
        ]
      }
    },
    {
      "type": "Feature",
      "properties": {
        "norad_id": 31113,
        "name": "HAIYANG-1B",
        "group": "resource",
        "lat": -67.77376192683647,
        "lon": 120.86235552855845,
        "alt_km": 806.1939698396363,
        "timestamp": "2025-12-03T04:52:29.297930+00:00",
        "meta_object_name": "HAIYANG-1B",
        "meta_object_id": "2007-010A",
        "meta_epoch": "2025-12-02T19:19:23.409120",
        "meta_mean_motion": 14.30959515,
        "meta_eccentricity": 0.0014604,
        "meta_inclination": 98.3308,
        "meta_ra_of_asc_node": 321.4942,
        "meta_arg_of_pericenter": 65.4415,
        "meta_mean_anomaly": 294.8289,
        "meta_ephemeris_type": 0,
        "meta_classification_type": "U",
        "meta_norad_cat_id": 31113,
        "meta_element_set_no": 999,
        "meta_rev_at_epoch": 97254,
        "meta_bstar": 8.0696e-05,
        "meta_mean_motion_dot": 1.71e-06,
        "meta_mean_motion_ddot": 0,
        "tle_line1": "1 31113U 07010A   25336.80513205  .00000171  00000+0  80696-4 0  9991",
        "tle_line2": "2 31113  98.3308 321.4942 0014604  65.4415 294.8289 14.30959515972548"
      },
      "geometry": {
        "type": "Point",
        "coordinates": [
          120.86235552855845,
          -67.77376192683647
        ]
      }
    },
    {
      "type": "Feature",
      "properties": {
        "norad_id": 31598,
        "name": "COSMO-SKYMED 1",
        "group": "resource",
        "lat": -77.83852987179138,
        "lon": -57.4789532467606,
        "alt_km": 588.7124776354676,
        "timestamp": "2025-12-03T04:52:29.297940+00:00",
        "meta_object_name": "COSMO-SKYMED 1",
        "meta_object_id": "2007-023A",
        "meta_epoch": "2025-12-02T19:41:04.117920",
        "meta_mean_motion": 14.95649302,
        "meta_eccentricity": 0.0001473,
        "meta_inclination": 97.8844,
        "meta_ra_of_asc_node": 162.155,
        "meta_arg_of_pericenter": 82.4949,
        "meta_mean_anomaly": 277.6439,
        "meta_ephemeris_type": 0,
        "meta_classification_type": "U",
        "meta_norad_cat_id": 31598,
        "meta_element_set_no": 999,
        "meta_rev_at_epoch": 42,
        "meta_bstar": 0.00044788,
        "meta_mean_motion_dot": 4.921e-05,
        "meta_mean_motion_ddot": 0,
        "tle_line1": "1 31598U 07023A   25336.82018655  .00004921  00000+0  44788-3 0  9991",
        "tle_line2": "2 31598  97.8844 162.1550 0001473  82.4949 277.6439 14.95649302   426"
      },
      "geometry": {
        "type": "Point",
        "coordinates": [
          -57.4789532467606,
          -77.83852987179138
        ]
      }
    },
    {
      "type": "Feature",
      "properties": {
        "norad_id": 31698,
        "name": "TERRASAR-X",
        "group": "resource",
        "lat": -13.330799268206903,
        "lon": 160.94844213048918,
        "alt_km": 513.4574928711481,
        "timestamp": "2025-12-03T04:52:29.297951+00:00",
        "meta_object_name": "TERRASAR-X",
        "meta_object_id": "2007-026A",
        "meta_epoch": "2025-12-02T13:47:56.806656",
        "meta_mean_motion": 15.19154546,
        "meta_eccentricity": 0.0001916,
        "meta_inclination": 97.4445,
        "meta_ra_of_asc_node": 342.105,
        "meta_arg_of_pericenter": 86.6664,
        "meta_mean_anomaly": 273.4789,
        "meta_ephemeris_type": 0,
        "meta_classification_type": "U",
        "meta_norad_cat_id": 31698,
        "meta_element_set_no": 999,
        "meta_rev_at_epoch": 2337,
        "meta_bstar": 8.5350444e-05,
        "meta_mean_motion_dot": 1.726e-05,
        "meta_mean_motion_ddot": 0,
        "tle_line1": "1 31698U 07026A   25336.57496304  .00001726  00000+0  85350-4 0  9999",
        "tle_line2": "2 31698  97.4445 342.1050 0001916  86.6664 273.4789 15.19154546 23376"
      },
      "geometry": {
        "type": "Point",
        "coordinates": [
          160.94844213048918,
          -13.330799268206903
        ]
      }
    },
    {
      "type": "Feature",
      "properties": {
        "norad_id": 32060,
        "name": "WORLDVIEW-1 (WV-1)",
        "group": "resource",
        "lat": 8.800781068305183,
        "lon": 93.66966816882436,
        "alt_km": 494.29485678315996,
        "timestamp": "2025-12-03T04:52:29.297961+00:00",
        "meta_object_name": "WORLDVIEW-1 (WV-1)",
        "meta_object_id": "2007-041A",
        "meta_epoch": "2025-12-02T19:23:01.581216",
        "meta_mean_motion": 15.24426871,
        "meta_eccentricity": 7.35e-05,
        "meta_inclination": 97.3835,
        "meta_ra_of_asc_node": 94.4304,
        "meta_arg_of_pericenter": 93.3394,
        "meta_mean_anomaly": 266.7928,
        "meta_ephemeris_type": 0,
        "meta_classification_type": "U",
        "meta_norad_cat_id": 32060,
        "meta_element_set_no": 999,
        "meta_rev_at_epoch": 1296,
        "meta_bstar": 0.00047079,
        "meta_mean_motion_dot": 0.00011486,
        "meta_mean_motion_ddot": 0,
        "tle_line1": "1 32060U 07041A   25336.80765719  .00011486  00000+0  47079-3 0  9994",
        "tle_line2": "2 32060  97.3835  94.4304 0000735  93.3394 266.7928 15.24426871 12966"
      },
      "geometry": {
        "type": "Point",
        "coordinates": [
          93.66966816882436,
          8.800781068305183
        ]
      }
    },
    {
      "type": "Feature",
      "properties": {
        "norad_id": 32289,
        "name": "YAOGAN-3",
        "group": "resource",
        "lat": -47.54728067559577,
        "lon": 12.574962284472683,
        "alt_km": 606.0573154418807,
        "timestamp": "2025-12-03T04:52:29.297972+00:00",
        "meta_object_name": "YAOGAN-3",
        "meta_object_id": "2007-055A",
        "meta_epoch": "2025-12-02T21:01:50.509056",
        "meta_mean_motion": 14.89779371,
        "meta_eccentricity": 0.0001512,
        "meta_inclination": 97.8377,
        "meta_ra_of_asc_node": 3.5909,
        "meta_arg_of_pericenter": 77.4664,
        "meta_mean_anomaly": 282.6722,
        "meta_ephemeris_type": 0,
        "meta_classification_type": "U",
        "meta_norad_cat_id": 32289,
        "meta_element_set_no": 999,
        "meta_rev_at_epoch": 97662,
        "meta_bstar": 0.00035722,
        "meta_mean_motion_dot": 3.371e-05,
        "meta_mean_motion_ddot": 0,
        "tle_line1": "1 32289U 07055A   25336.87627904  .00003371  00000+0  35722-3 0  9998",
        "tle_line2": "2 32289  97.8377   3.5909 0001512  77.4664 282.6722 14.89779371976621"
      },
      "geometry": {
        "type": "Point",
        "coordinates": [
          12.574962284472683,
          -47.54728067559577
        ]
      }
    }
  ]
}